GLOBALSTAR M023         
1 25621U 99004A   24340.14332440  .00000017  00000+0  67298-3 0  9994
2 25621  52.0111 284.3063 0010546  58.6962 315.2986 12.62485738191311
GLOBALSTAR M040         
1 25622U 99004B   24339.60217491 -.00000046  00000+0  32406-3 0  9998
2 25622  51.9925 289.8170 0001082   2.4310 169.4463 12.61992278190680
GLOBALSTAR M036         
1 25623U 99004C   24339.44287824 -.00000026  00000+0  82060-3 0  9997
2 25623  51.9992  33.6190 0010896  41.8433 331.5826 11.86582289155867
GLOBALSTAR M038         
1 25624U 99004D   24340.10286331 -.00000039  00000+0  46170-3 0  9991
2 25624  51.9977 270.5081 0002465  21.7799 351.7175 12.32515226178402
GLOBALSTAR M022         
1 25649U 99012A   24339.63970161 -.00000037  00000+0  59541-3 0  9998
2 25649  52.0030  99.7658 0003228 136.3721 236.5461 12.02492548152978
GLOBALSTAR M041         
1 25650U 99012B   24339.68308873 -.00000069  00000+0  21017-3 0  9992
2 25650  52.0039 335.1729 0002109 302.3199  57.7433 11.96662194154990
GLOBALSTAR M046         
1 25651U 99012C   24339.53381953  .00000018  00000+0  11757-2 0  9999
2 25651  52.0079  57.2942 0002251 206.4763 166.4769 12.09403632160119
GLOBALSTAR M037         
1 25652U 99012D   24339.98909887 -.00000031  00000+0  40677-3 0  9991
2 25652  52.0020  55.4624 0002573 120.1433  51.0149 12.62428096186801
